{"type": "FeatureCollection", "features": [ {"type": "Feature", "properties": {"norad_id": 37834, "name": "INTELSAT 18 (IS-18)", "group": "intelsat", "lat": 0.020678505801653077, "lon": 29.382172648464813, "alt_km": 35787.49974806923, "timestamp": "2025-12-25T07:41:09.390621+00:00", "meta": {"OBJECT_NAME": "INTELSAT 18 (IS-18)", "OBJECT_ID": "2011-056A", "EPOCH": "2025-12-24T20:48:11.805984", "MEAN_MOTION": 1.00271652, "ECCENTRICITY": 0.00018497, "INCLINATION": 0.0218, "RA_OF_ASC_NODE": 289.2279, "ARG_OF_PERICENTER": 359.8198, "MEAN_ANOMALY": 296.6334, "EPHEMERIS_TYPE": 0, "CLASSIFICATION_TYPE": "U", "NORAD_CAT_ID": 37834, "ELEMENT_SET_NO": 999, "REV_AT_EPOCH": 5206, "BSTAR": 0, "MEAN_MOTION_DOT": 7.4e-07, "MEAN_MOTION_DDOT": 0}, "tle": {"line1": "1 37834U 11056A   25358.86680331  .00000074  00000+0  00000+0 0  9995", "line2": "2 37834   0.0218 289.2279 0001849 359.8198 296.6334  1.00271652 52062"}}, "geometry": {"type": "Point", "coordinates": [29.382172648464813, 0.020678505801653077]}}, {"type": "Feature", "properties": {"norad_id": 38098, "name": "INTELSAT 22 (IS-22)", "group": "intelsat", "lat": -0.04269695690045809, "lon": -78.55723217083427, "alt_km": 35778.54869011363, "timestamp": "2025-12-25T07:41:09.390635+00:00", "meta": {"OBJECT_NAME": "INTELSAT 22 (IS-22)", "OBJECT_ID": "2012-011A", "EPOCH": "2025-12-24T20:06:58.008960", "MEAN_MOTION": 1.00270499, "ECCENTRICITY": 0.00019374, "INCLINATION": 0.0288, "RA_OF_ASC_NODE": 46.279, "ARG_OF_PERICENTER": 250.8444, "MEAN_ANOMALY": 170.3115, "EPHEMERIS_TYPE": 0, "CLASSIFICATION_TYPE": "U", "NORAD_CAT_ID": 38098, "ELEMENT_SET_NO": 999, "REV_AT_EPOCH": 544, "BSTAR": 0, "MEAN_MOTION_DOT": 0, "MEAN_MOTION_DDOT": 0}, "tle": {"line1": "1 38098U 12011A   25358.83817140  .00000000  00000+0  00000+0 0  9996", "line2": "2 38098   0.0288  46.2790 0001937 250.8444 170.3115  1.00270499  5446"}}, "geometry": {"type": "Point", "coordinates": [-78.55723217083427, -0.04269695690045809]}}, {"type": "Feature", "properties": {"norad_id": 38356, "name": "INTELSAT 19 (IS-19)", "group": "intelsat", "lat": 0.012628002242633586, "lon": 15.404218385419046, "alt_km": 35789.174339989535, "timestamp": "2025-12-25T07:41:09.390647+00:00", "meta": {"OBJECT_NAME": "INTELSAT 19 (IS-19)", "OBJECT_ID": "2012-030A", "EPOCH": "2025-12-24T20:44:12.189408", "MEAN_MOTION": 1.00272065, "ECCENTRICITY": 0.00029357, "INCLINATION": 0.0122, "RA_OF_ASC_NODE": 328.6064, "ARG_OF_PERICENTER": 301.9112, "MEAN_ANOMALY": 300.1721, "EPHEMERIS_TYPE": 0, "CLASSIFICATION_TYPE": "U", "NORAD_CAT_ID": 38356, "ELEMENT_SET_NO": 999, "REV_AT_EPOCH": 4870, "BSTAR": 0, "MEAN_MOTION_DOT": -3.5e-07, "MEAN_MOTION_DDOT": 0}, "tle": {"line1": "1 38356U 12030A   25358.86402997 -.00000035  00000+0  00000+0 0  9996", "line2": "2 38356   0.0122 328.6064 0002935 301.9112 300.1721  1.00272065 48703"}}, "geometry": {"type": "Point", "coordinates": [15.404218385419046, 0.012628002242633586]}}, {"type": "Feature", "properties": {"norad_id": 38740, "name": "INTELSAT 20 (IS-20)", "group": "intelsat", "lat": -0.023232109493721835, "lon": -82.09286341693726, "alt_km": 35783.008575529355, "timestamp": "2025-12-25T07:41:09.390660+00:00", "meta": {"OBJECT_NAME": "INTELSAT 20 (IS-20)", "OBJECT_ID": "2012-043A", "EPOCH": "2025-12-24T20:16:22.353024", "MEAN_MOTION": 1.00279882, "ECCENTRICITY": 0.00025898, "INCLINATION": 0.0111, "RA_OF_ASC_NODE": 57.3518, "ARG_OF_PERICENTER": 134.6528, "MEAN_ANOMALY": 274.201, "EPHEMERIS_TYPE": 0, "CLASSIFICATION_TYPE": "U", "NORAD_CAT_ID": 38740, "ELEMENT_SET_NO": 999, "REV_AT_EPOCH": 4900, "BSTAR": 0, "MEAN_MOTION_DOT": -5e-08, "MEAN_MOTION_DDOT": 0}, "tle": {"line1": "1 38740U 12043A   25358.84470316 -.00000005  00000+0  00000+0 0  9992", "line2": "2 38740   0.0111  57.3518 0002589 134.6528 274.2010  1.00279882 49005"}}, "geometry": {"type": "Point", "coordinates": [-82.09286341693726, -0.023232109493721835]}}, {"type": "Feature", "properties": {"norad_id": 38749, "name": "INTELSAT 21 (IS-21)", "group": "intelsat", "lat": 0.00375135560462128, "lon": 151.36048539275473, "alt_km": 35788.667738013595, "timestamp": "2025-12-25T07:41:09.390672+00:00", "meta": {"OBJECT_NAME": "INTELSAT 21 (IS-21)", "OBJECT_ID": "2012-045A", "EPOCH": "2025-12-24T21:23:00.970944", "MEAN_MOTION": 1.00272669, "ECCENTRICITY": 0.00016768, "INCLINATION": 0.0114, "RA_OF_ASC_NODE": 311.8484, "ARG_OF_PERICENTER": 312.5149, "MEAN_ANOMALY": 92.0621, "EPHEMERIS_TYPE": 0, "CLASSIFICATION_TYPE": "U", "NORAD_CAT_ID": 38749, "ELEMENT_SET_NO": 999, "REV_AT_EPOCH": 4877, "BSTAR": 0, "MEAN_MOTION_DOT": -2.64e-06, "MEAN_MOTION_DDOT": 0}, "tle": {"line1": "1 38749U 12045A   25358.89098346 -.00000264  00000+0  00000+0 0  9994", "line2": "2 38749   0.0114 311.8484 0001676 312.5149  92.0621  1.00272669 48772"}}, "geometry": {"type": "Point", "coordinates": [151.36048539275473, 0.00375135560462128]}}, {"type": "Feature", "properties": {"norad_id": 38867, "name": "INTELSAT 23 (IS-23)", "group": "intelsat", "lat": 0.029393378774035535, "lon": 156.4212842231399, "alt_km": 35785.650417312114, "timestamp": "2025-12-25T07:41:09.390683+00:00", "meta": {"OBJECT_NAME": "INTELSAT 23 (IS-23)", "OBJECT_ID": "2012-057A", "EPOCH": "2025-12-24T08:56:20.005728", "MEAN_MOTION": 1.0029009, "ECCENTRICITY": 0.0001332, "INCLINATION": 0.0163, "RA_OF_ASC_NODE": 42.67, "ARG_OF_PERICENTER": 258.6446, "MEAN_ANOMALY": 232.9201, "EPHEMERIS_TYPE": 0, "CLASSIFICATION_TYPE": "U", "NORAD_CAT_ID": 38867, "ELEMENT_SET_NO": 999, "REV_AT_EPOCH": 4820, "BSTAR": 0, "MEAN_MOTION_DOT": -2.64e-06, "MEAN_MOTION_DDOT": 0}, "tle": {"line1": "1 38867U 12057A   25358.37245377 -.00000264  00000+0  00000+0 0  9999", "line2": "2 38867   0.0163  42.6700 0001332 258.6446 232.9201  1.00290090 48201"}}, "geometry": {"type": "Point", "coordinates": [156.4212842231399, 0.029393378774035535]}}, {"type": "Feature", "properties": {"norad_id": 39360, "name": "FM-6", "group": "intelsat", "lat": 0.02046843921624326, "lon": 93.1877896494328, "alt_km": 35784.749986029405, "timestamp": "2025-12-25T07:41:09.390695+00:00", "meta": {"OBJECT_NAME": "FM-6", "OBJECT_ID": "2013-058A", "EPOCH": "2025-12-24T11:33:38.657952", "MEAN_MOTION": 1.00281075, "ECCENTRICITY": 0.00026294, "INCLINATION": 0.0161, "RA_OF_ASC_NODE": 72.2411, "ARG_OF_PERICENTER": 117.6968, "MEAN_ANOMALY": 320.5533, "EPHEMERIS_TYPE": 0, "CLASSIFICATION_TYPE": "U", "NORAD_CAT_ID": 39360, "ELEMENT_SET_NO": 999, "REV_AT_EPOCH": 4432, "BSTAR": 0, "MEAN_MOTION_DOT": 3e-08, "MEAN_MOTION_DDOT": 0}, "tle": {"line1": "1 39360U 13058A   25358.48169743  .00000003  00000+0  00000+0 0  9994", "line2": "2 39360   0.0161  72.2411 0002629 117.6968 320.5533  1.00281075 44323"}}, "geometry": {"type": "Point", "coordinates": [93.1877896494328, 0.02046843921624326]}}, {"type": "Feature", "properties": {"norad_id": 40271, "name": "INTELSAT 30 (IS-30)", "group": "intelsat", "lat": 0.03453588164630207, "lon": 114.30831640447096, "alt_km": 35780.836679314256, "timestamp": "2025-12-25T07:41:09.390707+00:00", "meta": {"OBJECT_NAME": "INTELSAT 30 (IS-30)", "OBJECT_ID": "2014-062A", "EPOCH": "2025-12-24T19:29:34.336608", "MEAN_MOTION": 1.00269708, "ECCENTRICITY": 0.00015129, "INCLINATION": 0.0142, "RA_OF_ASC_NODE": 31.4313, "ARG_OF_PERICENTER": 58.7013, "MEAN_ANOMALY": 200.7822, "EPHEMERIS_TYPE": 0, "CLASSIFICATION_TYPE": "U", "NORAD_CAT_ID": 40271, "ELEMENT_SET_NO": 999, "REV_AT_EPOCH": 504, "BSTAR": 0, "MEAN_MOTION_DOT": -1.29e-06, "MEAN_MOTION_DDOT": 0}, "tle": {"line1": "1 40271U 14062A   25358.81220297 -.00000129  00000+0  00000+0 0  9992", "line2": "2 40271   0.0142  31.4313 0001512  58.7013 200.7822  1.00269708  5044"}}, "geometry": {"type": "Point", "coordinates": [114.30831640447096, 0.03453588164630207]}}, {"type": "Feature", "properties": {"norad_id": 40333, "name": "DIRECTV 14", "group": "intelsat", "lat": 0.03135954759777403, "lon": 110.17306573663726, "alt_km": 35784.78944929667, "timestamp": "2025-12-25T07:41:09.390719+00:00", "meta": {"OBJECT_NAME": "DIRECTV 14", "OBJECT_ID": "2014-078B", "EPOCH": "2025-12-24T12:37:43.773312", "MEAN_MOTION": 1.00279829, "ECCENTRICITY": 3.885e-05, "INCLINATION": 0.0184, "RA_OF_ASC_NODE": 340.4706, "ARG_OF_PERICENTER": 254.7884, "MEAN_ANOMALY": 308.2619, "EPHEMERIS_TYPE": 0, "CLASSIFICATION_TYPE": "U", "NORAD_CAT_ID": 40333, "ELEMENT_SET_NO": 999, "REV_AT_EPOCH": 4029, "BSTAR": 0, "MEAN_MOTION_DOT": -1.06e-06, "MEAN_MOTION_DDOT": 0}, "tle": {"line1": "1 40333U 14078B   25358.52620108 -.00000106  00000+0  00000+0 0  9996", "line2": "2 40333   0.0184 340.4706 0000388 254.7884 308.2619  1.00279829 40291"}}, "geometry": {"type": "Point", "coordinates": [110.17306573663726, 0.03135954759777403]}}, {"type": "Feature", "properties": {"norad_id": 40663, "name": "DIRECTV 15", "group": "intelsat", "lat": 0.026639552067225708, "lon": 106.52420621081657, "alt_km": 35783.30845551198, "timestamp": "2025-12-25T07:41:09.390731+00:00", "meta": {"OBJECT_NAME": "DIRECTV 15", "OBJECT_ID": "2015-026A", "EPOCH": "2025-12-24T11:11:07.990944", "MEAN_MOTION": 1.00283981, "ECCENTRICITY": 0.00011805, "INCLINATION": 0.0101, "RA_OF_ASC_NODE": 345.5401, "ARG_OF_PERICENTER": 23.5118, "MEAN_ANOMALY": 149.0802, "EPHEMERIS_TYPE": 0, "CLASSIFICATION_TYPE": "U", "NORAD_CAT_ID": 40663, "ELEMENT_SET_NO": 999, "REV_AT_EPOCH": 3871, "BSTAR": 0, "MEAN_MOTION_DOT": -8.3e-07, "MEAN_MOTION_DDOT": 0}, "tle": {"line1": "1 40663U 15026A   25358.46606471 -.00000083  00000+0  00000+0 0  9990", "line2": "2 40663   0.0101 345.5401 0001180  23.5118 149.0802  1.00283981 38710"}}, "geometry": {"type": "Point", "coordinates": [106.52420621081657, 0.026639552067225708]}}]}